NORAD_CAT_ID,OBJECT_NAME,OBJECT_TYPE,EPOCH,MEAN_MOTION,ECCENTRICITY,INCLINATION,RA_OF_ASC_NODE,ARG_OF_PERICENTER,MEAN_ANOMALY,BSTAR,MEAN_MOTION_DOT,MEAN_MOTION_DDOT,TLE_LINE0,TLE_LINE1,TLE_LINE2,SEMIMAJOR_AXIS,PERIOD,APOGEE,PERIGEE,DECAYED
55281.0,STARLINK-5298,PAYLOAD,2024-08-08 22:20:07,14.98337787,0.0002699,70.0014,61.175,259.5786,100.5068,0.00015837,1.798e-05,0.0,0 STARLINK-5298,1 55281U 23010N   24221.93063691  .00001798  00000-0  15837-3 0  9997,2 55281  70.0014  61.1750 0002699 259.5786 100.5068 14.98337787 86239,6950.169,96.106,573.91,570.158,0.0
55281.0,STARLINK-5298,PAYLOAD,2024-08-09 14:21:27,14.98338207,0.000296,70.0009,59.4891,269.1143,90.9677,0.00012932,1.451e-05,0.0,0 STARLINK-5298,1 55281U 23010N   24222.59823443  .00001451  00000-0  12932-3 0  9998,2 55281  70.0009  59.4891 0002960 269.1143  90.9677 14.98338207 86331,6950.168,96.106,574.09,569.975,0.0
55281.0,STARLINK-5298,PAYLOAD,2024-08-09 20:45:59,14.9834499,0.0002673,70.0003,58.8163,264.7637,95.3217,0.00020079,2.305e-05,0.0,0 STARLINK-5298,1 55281U 23010N   24222.86526948  .00002305  00000-0  20079-3 0  9998,2 55281  70.0003  58.8163 0002673 264.7637  95.3217 14.98344990 86076,6950.147,96.106,573.869,570.154,0.0
55281.0,STARLINK-5298,PAYLOAD,2024-08-10 12:47:20,14.98334483,0.0002376,70.0009,57.1332,254.704,105.3856,5.7155e-05,5.89e-06,0.0,0 STARLINK-5298,1 55281U 23010N   24223.53287453  .00000589  00000-0  57155-4 0  9996,2 55281  70.0009  57.1332 0002376 254.7040 105.3856 14.98334483 86177,6950.179,96.107,573.695,570.393,0.0
55281.0,STARLINK-5298,PAYLOAD,2024-08-10 14:23:28,14.98330497,0.0002612,70.0016,56.9646,249.0357,111.0523,9.4592e-06,2e-07,0.0,0 STARLINK-5298,1 55281U 23010N   24223.59963533  .00000020  00000-0  94592-5 0  9999,2 55281  70.0016  56.9646 0002612 249.0357 111.0523 14.98330497 86481,6950.191,96.107,573.872,570.241,0.0
55281.0,STARLINK-5298,PAYLOAD,2024-08-10 20:48:01,14.98324078,0.0002584,70.0017,56.2931,239.034,121.0565,1.6606e-05,1.05e-06,0.0,0 STARLINK-5298,1 55281U 23010N   24223.86668344  .00000105  00000-0  16606-4 0  9994,2 55281  70.0017  56.2931 0002584 239.0340 121.0565 14.98324078 86228,6950.211,96.107,573.872,570.28,0.0
55281.0,STARLINK-5298,PAYLOAD,2024-08-10 22:24:09,14.98328219,0.0002818,70.0005,56.1239,254.3031,105.7817,3.7926e-05,3.6e-06,0.0,0 STARLINK-5298,1 55281U 23010N   24223.93344032  .00000360  00000-0  37926-4 0  9998,2 55281  70.0005  56.1239 0002818 254.3031 105.7817 14.98328219 86536,6950.198,96.107,574.022,570.105,0.0
55281.0,STARLINK-5298,PAYLOAD,2024-08-11 22:26:09,14.98334978,0.0002755,70.0019,53.5966,265.8367,94.2477,0.00020816,2.392e-05,0.0,0 STARLINK-5298,1 55281U 23010N   24224.93483711  .00002392  00000-0  20816-3 0  9993,2 55281  70.0019  53.5966 0002755 265.8367  94.2477 14.98334978 86687,6950.177,96.107,573.957,570.128,0.0
55281.0,STARLINK-5298,PAYLOAD,2024-08-12 12:51:22,14.98336886,0.0003063,70.0022,52.0817,270.5856,89.4952,0.00033667,3.927e-05,0.0,0 STARLINK-5298,1 55281U 23010N   24225.53567641  .00003927  00000-0  33667-3 0  9998,2 55281  70.0022  52.0817 0003063 270.5856  89.4952 14.98336886 86773,6950.172,96.107,574.165,569.908,0.0
55281.0,STARLINK-5298,PAYLOAD,2024-08-12 22:28:10,14.9835015,0.0002955,70.0034,51.0718,269.5004,90.5816,0.00063848,7.537e-05,0.0,0 STARLINK-5298,1 55281U 23010N   24225.93623126  .00007537  00000-0  63848-3 0  9998,2 55281  70.0034  51.0718 0002955 269.5004  90.5816 14.98350150 86836,6950.131,96.106,574.049,569.942,0.0
55281.0,STARLINK-5298,PAYLOAD,2024-08-13 19:17:56,14.98314118,0.0002105,70.0024,48.8839,269.6072,90.4846,-0.00025937,-3.185e-05,0.0,0 STARLINK-5298,1 55281U 23010N   24226.80413168 -.00003185  00000-0 -25937-3 0  9992,2 55281  70.0024  48.8839 0002105 269.6072  90.4846 14.98314118 86663,6950.242,96.108,573.57,570.644,0.0
55281.0,STARLINK-5298,PAYLOAD,2024-08-13 22:30:13,14.98308203,0.0003216,70.0039,48.5478,274.203,85.8761,-0.00030909,-3.777e-05,0.0,0 STARLINK-5298,1 55281U 23010N   24226.93765595 -.00003777  00000-0 -30909-3 0  9992,2 55281  70.0039  48.5478 0003216 274.2030  85.8761 14.98308203 86982,6950.26,96.108,574.361,569.89,0.0
55281.0,STARLINK-5298,PAYLOAD,2024-08-14 14:31:34,14.98324528,0.0003614,70.0026,46.8647,273.8437,86.2308,0.00086608,0.00010255,0.0,0 STARLINK-5298,1 55281U 23010N   24227.60525941  .00010255  00000-0  86608-3 0  9990,2 55281  70.0026  46.8647 0003614 273.8437  86.2308 14.98324528 87087,6950.21,96.107,574.587,569.563,0.0
55281.0,STARLINK-5298,PAYLOAD,2024-08-14 19:19:58,14.98342759,0.0003433,70.0011,46.3603,272.4468,87.6298,0.0015582,0.00018555,0.0,0 STARLINK-5298,1 55281U 23010N   24227.80553754  .00018555  00000-0  15582-2 0  9998,2 55281  70.0011  46.3603 0003433 272.4468  87.6298 14.98342759 86815,6950.153,96.106,574.404,569.632,0.0
55281.0,STARLINK-5298,PAYLOAD,2024-08-14 20:56:06,14.98346239,0.0003431,70.0011,46.1916,273.7101,86.3666,0.0014951,0.000178,0.0,0 STARLINK-5298,1 55281U 23010N   24227.87229669  .00017800  00000-0  14951-2 0  9991,2 55281  70.0011  46.1916 0003431 273.7101  86.3666 14.98346239 87123,6950.143,96.106,574.392,569.623,0.0
55281.0,STARLINK-5298,PAYLOAD,2024-08-15 04:56:46,14.98352463,0.0003402,70.0008,45.3497,272.8153,87.2617,0.0010869,0.00012907,0.0,0 STARLINK-5298,1 55281U 23010N   24228.20609300  .00012907  00000-0  10869-2 0  9990,2 55281  70.0008  45.3497 0003402 272.8153  87.2617 14.98352463 87176,6950.123,96.106,574.353,569.624,0.0
55281.0,STARLINK-5298,PAYLOAD,2024-08-16 04:58:46,14.98360795,0.000336,70.0009,42.8253,270.374,89.7034,0.00085427,0.00010123,0.0,0 STARLINK-5298,1 55281U 23010N   24229.20747943  .00010123  00000-0  85427-3 0  9998,2 55281  70.0009  42.8253 0003360 270.3740  89.7034 14.98360795 87028,6950.098,96.105,574.298,569.627,0.0
55281.0,STARLINK-5298,PAYLOAD,2024-08-16 12:59:26,14.98342932,0.0003115,70.0013,41.9832,269.1986,90.8816,0.00050707,5.964e-05,0.0,0 STARLINK-5298,1 55281U 23010N   24229.54127718  .00005964  00000-0  50707-3 0  9997,2 55281  70.0013  41.9832 0003115 269.1986  90.8816 14.98342932 87071,6950.153,96.106,574.183,569.853,0.0
55281.0,STARLINK-5298,PAYLOAD,2024-08-16 21:00:06,14.98344323,0.0003135,70.001,41.1412,268.6165,91.4634,0.00090823,0.00010765,0.0,0 STARLINK-5298,1 55281U 23010N   24229.87507642  .00010765  00000-0  90823-3 0  9999,2 55281  70.0010  41.1412 0003135 268.6165  91.4634 14.98344323 87429,6950.149,96.106,574.192,569.835,0.0
55281.0,STARLINK-5298,PAYLOAD,2024-08-18 13:03:28,14.98338138,0.0003114,70.0015,36.9331,267.938,92.1422,0.00022168,2.554e-05,0.0,0 STARLINK-5298,1 55281U 23010N   24231.54407469  .00002554  00000-0  22168-3 0  9996,2 55281  70.0015  36.9331 0003114 267.9380  92.1422 14.98338138 87378,6950.168,96.106,574.197,569.868,0.0
55281.0,STARLINK-5298,PAYLOAD,2024-08-18 21:04:08,14.98342256,0.0003081,70.0017,36.091,265.6621,94.4186,0.00019064,2.183e-05,0.0,0 STARLINK-5298,1 55281U 23010N   24231.87787038  .00002183  00000-0  19064-3 0  9994,2 55281  70.0017  36.0910 0003081 265.6621  94.4186 14.98342256 87727,6950.155,96.106,574.161,569.879,0.0
55281.0,STARLINK-5298,PAYLOAD,2024-08-20 03:30:41,14.98334009,0.0003192,70.0019,32.8943,268.0924,91.9869,-5.3471e-06,-1.57e-06,0.0,0 STARLINK-5298,1 55281U 23010N   24233.14631341 -.00000157  00000-0 -53471-5 0  9994,2 55281  70.0019  32.8943 0003192 268.0924  91.9869 14.98334009 87610,6950.18,96.107,574.264,569.827,0.0
55281.0,STARLINK-5298,PAYLOAD,2024-08-20 14:43:37,14.98335777,0.000317,70.0007,31.7164,267.5658,92.5138,3.0711e-05,2.73e-06,0.0,0 STARLINK-5298,1 55281U 23010N   24233.61363335  .00000273  00000-0  30711-4 0  9999,2 55281  70.0007  31.7164 0003170 267.5658  92.5138 14.98335777 87983,6950.175,96.107,574.243,569.837,0.0
55281.0,STARLINK-5298,PAYLOAD,2024-08-21 13:09:31,14.98328588,0.0002904,70.0008,29.3587,265.2741,94.8086,5.9674e-05,6.19e-06,0.0,0 STARLINK-5298,1 55281U 23010N   24234.54827648  .00000619  00000-0  59674-4 0  9997,2 55281  70.0008  29.3587 0002904 265.2741  94.8086 14.98328588 87820,6950.197,96.107,574.081,570.044,0.0
55281.0,STARLINK-5298,PAYLOAD,2024-08-21 14:45:39,14.98328468,0.0002909,70.0009,29.1904,265.159,94.9237,5.5983e-05,5.75e-06,0.0,0 STARLINK-5298,1 55281U 23010N   24234.61503666  .00000575  00000-0  55983-4 0  9996,2 55281  70.0009  29.1904 0002909 265.1590  94.9237 14.98328468 88139,6950.198,96.107,574.084,570.041,0.0
55281.0,STARLINK-5298,PAYLOAD,2024-08-21 19:34:03,14.9832868,0.0002916,70.0009,28.6854,265.4455,94.6371,5.2734e-05,5.36e-06,0.0,0 STARLINK-5298,1 55281U 23010N   24234.81531674  .00000536  00000-0  52734-4 0  9996,2 55281  70.0009  28.6854 0002916 265.4455  94.6371 14.98328680 88163,6950.197,96.107,574.089,570.035,0.0
